ALSAT-1N
1 41789U 16059G   25019.13414373  .00002165  00000-0  38574-3 0  9997
2 41789  97.8145  40.7229 0027398  33.0840 327.2073 14.67771152444553
CAS-2T & KS-1Q
1 41847U 16066G   25019.17601697  .00002960  00000-0  43454-3 0  9997
2 41847  98.4367  94.8355 0347836 245.9557 110.4872 14.42732639430624
GOES-16
1 41866U 16071A   25019.09377201 -.00000237  00000-0  00000+0 0  9998
2 41866   0.0112 264.6089 0001953  68.6441 104.0262  1.00270722 29943
FENGYUN-4A
1 41882U 16077A   25018.62573434 -.00000187  00000-0  00000-0 0  9991
2 41882   1.0078  85.6738 0010879 343.4319   0.7183  1.00266738 29766
FOX-1B (AO-91)
1 43017U 17073E   25018.58455025  .00016743  00000-0  91821-3 0  9998
2 43017  97.5468 253.0841 0185065 290.0809  68.0583 15.00710374387884
CANX-2
1 32790U 08021H   25018.88130341  .00007594  00000-0  62360-3 0  9991
2 32790  97.7976 347.9832 0011741 341.8733  18.2070 14.99426300907649
AIST-2 (RS-43)
1 39133U 13015D   25019.24098011  .00010077  00000-0  49780-3 0  9997
2 39133  64.8708 127.9116 0026068 299.5484  60.3044 15.18013650646108
NANOSATC-BR1
1 40024U 14033Q   25018.92938228  .00019082  00000-0  10993-2 0  9994
2 40024  98.0845   7.6887 0006224 141.5292 218.6381 15.12445586575759
QB50P1
1 40025U 14033R   25018.87572231  .00014646  00000-0  99435-3 0  9997
2 40025  98.0700 354.1229 0011599 165.7429 194.4127 15.06454610575278
QB50P2
1 40032U 14033Y   25018.85841401  .00012703  00000-0  90489-3 0  9993
2 40032  98.0272 344.1896 0010546 114.3214 245.9113 15.04702812575031
PERSEUS-M2
1 40037U 14033AD  25019.18204831  .00004045  00000-0  39771-3 0  9992
2 40037  97.9446 317.2257 0011914 194.9131 165.1738 14.92655451574522
PERSEUS-M1
1 40039U 14033AF  25018.35919811  .00004873  00000-0  47899-3 0  9992
2 40039  97.9210 311.8085 0011684 196.6544 163.4292 14.92557461573755
POLYITAN-1
1 40042U 14033AJ  25018.89056297  .00021339  00000-0  12357-2 0  9991
2 40042  98.0941 359.8296 0012722 118.6823 241.5686 15.12180508575323
TIGRISAT
1 40043U 14033AK  25018.98541714  .00004625  00000-0  58184-3 0  9993
2 40043  97.7141 179.1052 0052062 320.5090  39.2334 14.81576518569685
UKUBE-1
1 40074U 14037F   25019.21157832  .00015477  00000-0  12127-2 0  9995
2 40074  98.3737 329.7756 0002886  64.7236 295.4285 15.01093744571108
DEORBITSAIL
1 40719U 15032E   25018.85827340  .00012403  00000-0  11891-2 0  9997
2 40719  97.6586 241.8563 0012201 135.8277 224.3919 14.93208830514202
HORYU-IV
1 41340U 16012D   25018.96189545  .00028654  00000-0  10146-2 0  9994
2 41340  30.9995 358.1704 0005833  21.6264 338.4625 15.27926323491046
D-SAT
1 42794U 17036AF  25018.89687454  .00010759  00000-0  64950-3 0  9999
2 42794  97.5002 359.8858 0100797 132.8199 228.1556 15.06643522413139
CORVUS-BC2
1 42846U 17042X   25018.75441111  .00005955  00000-0  46833-3 0  9999
2 42846  97.3676 198.3763 0014492  55.9337 304.3262 15.01117010409744
CORVUS-BC1
1 42847U 17042Y   25019.02700920  .00006519  00000-0  50999-3 0  9992
2 42847  97.3697 199.0635 0013809  32.6661 327.5416 15.01295042409804
APRIZESAT-5 
1 37792U 11044E   25019.21683745  .00002339  00000-0  31476-3 0  9992
2 37792  98.2348 294.0500 0053082 215.2320 144.5377 14.79286613722893
APRIZESAT-6
1 37793U 11044F   25018.65595159  .00001922  00000-0  28612-3 0  9996
2 37793  98.2772 273.1279 0043067 291.1502 127.5272 14.75560155721237
APRIZESAT-7
1 39416U 13066A   25018.86627850  .00002751  00000-0  29261-3 0  9995
2 39416  97.7027 337.5531 0038947 114.2679 246.2615 14.89211797604617
APRIZESAT-8
1 39425U 13066K   25018.90813725  .00002153  00000-0  24936-3 0  9998
2 39425  97.7593 331.3138 0047737 175.5457 184.6193 14.85709646603527
BUGSAT-1 (TITA)
1 40014U 14033E   25019.17846009  .00007876  00000-0  50279-3 0  9996
2 40014  98.0956  78.0738 0033435 126.1507 234.2821 15.08506648578163
SAUDISAT-4
1 40016U 14033G   25018.93578236  .00001668  00000-0  23313-3 0  9997
2 40016  97.6853 180.5342 0044903 308.2487  51.4687 14.78215163570063
TABLETSAT-AURORA
1 40017U 14033H   25019.18433090  .00010479  00000-0  67535-3 0  9998
2 40017  98.0949  59.1677 0014130 159.4659 200.7139 15.08447948577489
APRIZESAT-9
1 40018U 14033J   25018.94835224  .00001445  00000-0  22448-3 0  9994
2 40018  97.8297 162.4258 0068745  54.3979 306.3609 14.72983902567956
APRIZESAT-10
1 40019U 14033K   25018.95063486  .00001671  00000-0  27401-3 0  9994
2 40019  97.8943 154.8776 0081443 115.6780 245.2866 14.69801699566869
AISAT
1 40054U 14034B   25019.23949116  .00013389  00000-0  11997-2 0  9990
2 40054  98.3073 252.7223 0009273 128.5214 231.6838 14.95902565570034
COSMOS-2407 [+]
1 28380U 04028A   25018.72927942  .00000103  00000-0  90352-4 0  9990
2 28380  82.9599  95.8243 0037954 250.4061 228.2350 13.76266644 29112
COSMOS-2414 [+]
1 28521U 05002A   25018.86541561  .00000129  00000-0  95254-4 0  9998
2 28521  82.9478  72.6447 0039980 358.1160   1.9846 13.87846046 12470
COSMOS-2463 [+]
1 36519U 10017A   25018.77251662  .00000088  00000-0  80481-4 0  9996
2 36519  82.9593 267.6615 0037283 116.4923 306.8672 13.71607926737410
NOAA-15
1 25338U 98030A   25019.16756072  .00000338  00000-0  15692-3 0  9992
2 25338  98.5504  47.6044 0011111  56.7908 303.4336 14.26859643388233
NOAA-18
1 28654U 05018A   25019.12683114  .00000403  00000-0  23745-3 0  9993
2 28654  98.8559 100.1402 0014536 167.7337 192.4191 14.13490232 13765
NOAA-19
1 33591U 09005A   25019.18116543  .00000338  00000-0  20449-3 0  9997
2 33591  99.0189  82.9757 0014332  46.3357 313.9000 14.13262914822133
SARAL
1 39086U 13009A   25018.90642159  .00000286  00000-0  12130-3 0  9997
2 39086  98.5492 207.1034 0002304  35.5066 324.6271 14.32636579621961
HODOYOSHI-1
1 40299U 14070B   25019.16800550  .00158962  00000-0  80494-3 0  9997
2 40299  97.1004  86.1118 0003382 311.1695  48.9282 15.81100259568806
LAPAN-A3
1 41603U 16040E   25019.14895992  .00005698  00000-0  20965-3 0  9992
2 41603  97.1392  29.4511 0013056  59.1077 301.1445 15.28162592476177
BIROS
1 41604U 16040F   25018.79914516  .00035312  00000-0  61198-3 0  9996
2 41604  97.1035  48.4878 0006532   0.3839 359.7417 15.50795049477447
METOP-A
1 29499U 06044A   25019.25831632  .00004315  00000-0  52696-3 0  9998
2 29499  98.3380 106.1399 0181165 264.7583 161.2637 14.72873081952566
METEOR M1
1 35865U 09049A   25018.89296677  .00000305  00000-0  15492-3 0  9991
2 35865  98.6660 342.3116 0002545  24.3830 335.7468 14.22929933796248
METOP-B
1 38771U 12049A   25019.12466785  .00000265  00000-0  14071-3 0  9997
2 38771  98.6004  77.1764 0001699  76.9123 283.2244 14.21412936640222
METEOR M2
1 40069U 14037A   25019.18600867  .00000331  00000-0  17113-3 0  9990
2 40069  98.4551   9.9893 0006931  90.4796 269.7176 14.21194649546302
CSSWE
1 38761U 12048D   25018.38070670  .00031736  00000-0  13137-2 0  9994
2 38761  64.6682   0.4332 0120615 311.9814  47.1083 15.17322679 37627
MCUBED-2
1 39469U 13072H   25018.93373990  .00025824  00000-0  13621-2 0  9999
2 39469 120.4952 190.6362 0186450 179.1618 180.9783 15.01743020 40159
IPEX
1 39471U 13072K   25019.25144678  .00022689  00000-0  13491-2 0  9998
2 39471 120.4693 162.8035 0200202 173.2025 187.1815 14.96019745 38000
FOX-1A (AO-85)
1 40967U 15058D   25018.57807840  .00008694  00000-0  74996-3 0  9995
2 40967  64.7765  73.2383 0180403 239.5951 118.7224 14.86072162 36954
OOREOS
1 37224U 10062C   25018.78344456  .00005374  00000-0  56070-3 0  9994
2 37224  71.9718 162.6011 0016568 320.3397  39.6558 14.90051552 39913
STARS (KUKAI)
1 33498U 09002G   25018.77238427  .00007616  00000-0  80151-3 0  9992
2 33498  98.1210 303.8612 0010855  66.2593 293.9761 14.89649279861723
YUBELEINY-2 (RS-40)
1 38735U 12041C   25019.19828063  .00000032  00000-0  16258-3 0  9998
2 38735  82.4748  35.1822 0018559 107.6074 252.7035 12.42624425566109
AIST-1
1 39492U 13078C   25019.18221104  .00003015  00000-0  28327-3 0  9996
2 39492  82.4149  47.9253 0017342 192.5265 167.5527 14.93517515600789
VELOX-1
1 40057U 14034E   25019.21031279  .00008207  00000-0  84199-3 0  9991
2 40057  98.3131 251.1868 0008509 151.5875 208.5806 14.90675519569835
DX1
1 40071U 14037C   25019.18023117  .00003584  00000-0  40608-3 0  9998
2 40071  98.3372 307.7903 0008447 135.1428 225.0470 14.87061835569713
AAUSAT CUBESAT 2
1 32788U 08021F   25018.92642088  .00082658  00000-0  18798-2 0  9998
2 32788  97.6062   9.3574 0006897 107.1930 253.0072 15.42662685911363
COSMOS-2491 (RS-46) [i]
1 39497U 13076E   25019.21283079  .00000035  00000-0  18140-3 0  9993
2 39497  82.4870 128.8482 0013966 131.0557 229.1732 12.43485304502134
COSMOS-2499 (RS-47) [i]
1 39765U 14028E   25019.18034449  .00000019  00000-0  20727-4 0  9997
2 39765  82.4464 239.2545 0232266 128.2669 233.9582 12.82885149499333
TRANSIT 5B-5
1 00965U 64083D   25018.93531090  .00000071  00000-0  87329-4 0  9998
2 00965  90.0510 199.4492 0040801 344.4090 131.5267 13.56939977973869
EUTELSAT 1-F4 (ECS 4)
1 18351U 87078B   25017.87618925 -.00000162  00000-0  00000-0 0  9999
2 18351  14.1963 345.7474 0009181  17.3102  79.0348  0.98690320121676
BISONSAT
1 40968U 15058E   25018.86127255  .00011295  00000-0  91330-3 0  9995
2 40968  64.7766  62.5644 0171956 238.5676 119.8526 14.89231894 39876
DTUSAT-2
1 40030U 14033W   25018.83027984  .00012417  00000-0  88617-3 0  9993
2 40030  98.0404 344.3157 0010040 167.0102 193.1384 15.04644918575056
ELEKTRO-L2
1 41105U 15074A   25018.96293001 -.00000109  00000-0  00000+0 0  9994
2 41105   5.3921  76.8615 0003849 209.2865 164.6359  1.00271870 33367
DOVE-3
1 39429U 13066P   25018.89224327  .00007931  00000-0  11394-2 0  9996
2 39429  97.7313 259.4043 0121421 247.5230 111.3084 14.71724838595237
FORTE
1 24920U 97047A   25018.73282081  .00000539  00000-0  24172-3 0  9997
2 24920  69.9537  95.7067 0025411 260.8366  98.9881 14.27538848425257
DMSP 5D-2 F15/USA-147
1 25991U 99067A   25019.19763479  .00000359  00000-0  20031-3 0  9996
2 25991  99.0535  44.7087 0010265  28.8573  61.3115 14.17269432297853
